[
    {
        "Altitude(m)": 570533.5197605891,
        "Argument of Periapsis(deg)": -0.007534386927657468,
        "Eccentricity": 0.0,
        "Inclination(deg)": 97.0,
        "Latitude(deg)": -18.167499835636892,
        "Longitude(deg)": -163.05774513955274,
        "Mean Anomaly(deg)": 198.09094775639588,
        "RAAN(deg)": 120.00198235120617,
        "Satellite Name": "Starlink Shell 3 1846",
        "Satellite Number": 1846,
        "Semi-Major Axis(m)": 6938478.169268562,
        "Time(s)": 190
    },
    {
        "Altitude(m)": 570728.6541809362,
        "Argument of Periapsis(deg)": -0.007930933608060494,
        "Eccentricity": 0.0,
        "Inclination(deg)": 97.0,
        "Latitude(deg)": -18.79014765773897,
        "Longitude(deg)": -163.18402019261495,
        "Mean Anomaly(deg)": 198.71642395410086,
        "RAAN(deg)": 120.00208668548017,
        "Satellite Name": "Starlink Shell 3 1846",
        "Satellite Number": 1846,
        "Semi-Major Axis(m)": 6938478.169268562,
        "Time(s)": 200
    },
    {
        "Altitude(m)": 570926.8828867857,
        "Argument of Periapsis(deg)": -0.008327480288463517,
        "Eccentricity": 0.0,
        "Inclination(deg)": 97.0,
        "Latitude(deg)": -19.412690680403983,
        "Longitude(deg)": -163.3109139026462,
        "Mean Anomaly(deg)": 199.3419001518059,
        "RAAN(deg)": 120.00219101975418,
        "Satellite Name": "Starlink Shell 3 1846",
        "Satellite Number": 1846,
        "Semi-Major Axis(m)": 6938478.169268562,
        "Time(s)": 210
    },
    {
        "Altitude(m)": 571128.1379413751,
        "Argument of Periapsis(deg)": -0.008724026968866542,
        "Eccentricity": 0.0,
        "Inclination(deg)": 97.0,
        "Latitude(deg)": -20.03512584025126,
        "Longitude(deg)": -163.43845336306956,
        "Mean Anomaly(deg)": 199.96737634951094,
        "RAAN(deg)": 120.00229535402818,
        "Satellite Name": "Starlink Shell 3 1846",
        "Satellite Number": 1846,
        "Semi-Major Axis(m)": 6938478.169268562,
        "Time(s)": 220
    },
    {
        "Altitude(m)": 571332.3498655832,
        "Argument of Periapsis(deg)": -0.009120573649269567,
        "Eccentricity": 0.0,
        "Inclination(deg)": 97.0,
        "Latitude(deg)": -20.657450059201405,
        "Longitude(deg)": -163.5666663741874,
        "Mean Anomaly(deg)": 200.59285254721595,
        "RAAN(deg)": 120.0023996883022,
        "Satellite Name": "Starlink Shell 3 1846",
        "Satellite Number": 1846,
        "Semi-Major Axis(m)": 6938478.169268562,
        "Time(s)": 230
    },
    {
        "Altitude(m)": 571539.4476694932,
        "Argument of Periapsis(deg)": -0.009517120329672592,
        "Eccentricity": 0.0,
        "Inclination(deg)": 97.0,
        "Latitude(deg)": -21.279660242798958,
        "Longitude(deg)": -163.6955809770247,
        "Mean Anomaly(deg)": 201.2183287449211,
        "RAAN(deg)": 120.0025040225762,
        "Satellite Name": "Starlink Shell 3 1846",
        "Satellite Number": 1846,
        "Semi-Major Axis(m)": 6938478.169268562,
        "Time(s)": 240
    },
    {
        "Altitude(m)": 571749.358884658,
        "Argument of Periapsis(deg)": -0.009913667010075618,
        "Eccentricity": 0.0,
        "Inclination(deg)": 97.0,
        "Latitude(deg)": -21.90175327840258,
        "Longitude(deg)": -163.82522650186831,
        "Mean Anomaly(deg)": 201.8438049426261,
        "RAAN(deg)": 120.00260835685022,
        "Satellite Name": "Starlink Shell 3 1846",
        "Satellite Number": 1846,
        "Semi-Major Axis(m)": 6938478.169268562,
        "Time(s)": 250
    },
    {
        "Altitude(m)": 571962.0095970746,
        "Argument of Periapsis(deg)": -0.010310213690478642,
        "Eccentricity": 0.0,
        "Inclination(deg)": 97.0,
        "Latitude(deg)": -22.523726033242284,
        "Longitude(deg)": -163.95563310587838,
        "Mean Anomaly(deg)": 202.46928114033113,
        "RAAN(deg)": 120.00271269112422,
        "Satellite Name": "Starlink Shell 3 1846",
        "Satellite Number": 1846,
        "Semi-Major Axis(m)": 6938478.169268562,
        "Time(s)": 260
    },
    {
        "Altitude(m)": 572177.3244808669,
        "Argument of Periapsis(deg)": -0.010706760370881667,
        "Eccentricity": 0.0,
        "Inclination(deg)": 97.0,
        "Latitude(deg)": -23.14557535232909,
        "Longitude(deg)": -164.0868313127784,
        "Mean Anomaly(deg)": 203.09475733803617,
        "RAAN(deg)": 120.00281702539824,
        "Satellite Name": "Starlink Shell 3 1846",
        "Satellite Number": 1846,
        "Semi-Major Axis(m)": 6938478.169268562,
        "Time(s)": 270
    },
    {
        "Altitude(m)": 572395.2268326386,
        "Argument of Periapsis(deg)": -0.011103307051284692,
        "Eccentricity": 0.0,
        "Inclination(deg)": 97.0,
        "Latitude(deg)": -23.76729805620838,
        "Longitude(deg)": -164.2188530676368,
        "Mean Anomaly(deg)": 203.7202335357412,
        "RAAN(deg)": 120.00292135967224,
        "Satellite Name": "Starlink Shell 3 1846",
        "Satellite Number": 1846,
        "Semi-Major Axis(m)": 6938478.169268562,
        "Time(s)": 280
    },
    {
        "Altitude(m)": 572615.6386064675,
        "Argument of Periapsis(deg)": -0.011499853731687715,
        "Eccentricity": 0.0,
        "Inclination(deg)": 97.0,
        "Latitude(deg)": -24.388890938551054,
        "Longitude(deg)": -164.3517312811464,
        "Mean Anomaly(deg)": 204.34570973344626,
        "RAAN(deg)": 120.00302569394627,
        "Satellite Name": "Starlink Shell 3 1846",
        "Satellite Number": 1846,
        "Semi-Major Axis(m)": 6938478.169268562,
        "Time(s)": 290
    },
    {
        "Altitude(m)": 572838.4804495659,
        "Argument of Periapsis(deg)": -0.011896400412090741,
        "Eccentricity": 0.0,
        "Inclination(deg)": 97.0,
        "Latitude(deg)": -25.010350763568706,
        "Longitude(deg)": -164.48549937643625,
        "Mean Anomaly(deg)": 204.97118593115135,
        "RAAN(deg)": 120.00313002822024,
        "Satellite Name": "Starlink Shell 3 1846",
        "Satellite Number": 1846,
        "Semi-Major Axis(m)": 6938478.169268562,
        "Time(s)": 300
    },
    {
        "Altitude(m)": 573063.6717385171,
        "Argument of Periapsis(deg)": -0.012292947092493765,
        "Eccentricity": 0.0,
        "Inclination(deg)": 97.0,
        "Latitude(deg)": -25.631674263240978,
        "Longitude(deg)": -164.62019235146252,
        "Mean Anomaly(deg)": 205.59666212885637,
        "RAAN(deg)": 120.00323436249427,
        "Satellite Name": "Starlink Shell 3 1846",
        "Satellite Number": 1846,
        "Semi-Major Axis(m)": 6938478.169268562,
        "Time(s)": 310
    },
    {
        "Altitude(m)": 573291.1306161457,
        "Argument of Periapsis(deg)": -0.012689493772896788,
        "Eccentricity": 0.0,
        "Inclination(deg)": 97.0,
        "Latitude(deg)": -26.252858134346564,
        "Longitude(deg)": -164.7558463314207,
        "Mean Anomaly(deg)": 206.2221383265614,
        "RAAN(deg)": 120.00333869676827,
        "Satellite Name": "Starlink Shell 3 1846",
        "Satellite Number": 1846,
        "Semi-Major Axis(m)": 6938478.169268562,
        "Time(s)": 320
    },
    {
        "Altitude(m)": 573520.7740289551,
        "Argument of Periapsis(deg)": -0.013086040453299813,
        "Eccentricity": 0.0,
        "Inclination(deg)": 97.0,
        "Latitude(deg)": -26.873899035282832,
        "Longitude(deg)": -164.8924981242508,
        "Mean Anomaly(deg)": 206.84761452426645,
        "RAAN(deg)": 120.00344303104228,
        "Satellite Name": "Starlink Shell 3 1846",
        "Satellite Number": 1846,
        "Semi-Major Axis(m)": 6938478.169268562,
        "Time(s)": 330
    },
    {
        "Altitude(m)": 573752.517765097,
        "Argument of Periapsis(deg)": -0.01348258713370284,
        "Eccentricity": 0.0,
        "Inclination(deg)": 97.0,
        "Latitude(deg)": -27.49479358265848,
        "Longitude(deg)": -165.03018629232636,
        "Mean Anomaly(deg)": 207.47309072197143,
        "RAAN(deg)": 120.00354736531628,
        "Satellite Name": "Starlink Shell 3 1846",
        "Satellite Number": 1846,
        "Semi-Major Axis(m)": 6938478.169268562,
        "Time(s)": 340
    },
    {
        "Altitude(m)": 573986.2764929082,
        "Argument of Periapsis(deg)": -0.013879133814105863,
        "Eccentricity": 0.0,
        "Inclination(deg)": 97.0,
        "Latitude(deg)": -28.11553834764846,
        "Longitude(deg)": -165.16895071481284,
        "Mean Anomaly(deg)": 208.09856691967659,
        "RAAN(deg)": 120.0036516995903,
        "Satellite Name": "Starlink Shell 3 1846",
        "Satellite Number": 1846,
        "Semi-Major Axis(m)": 6938478.169268562,
        "Time(s)": 350
    },
    {
        "Altitude(m)": 574221.9637999443,
        "Argument of Periapsis(deg)": -0.01427568049450889,
        "Eccentricity": 0.0,
        "Inclination(deg)": 97.0,
        "Latitude(deg)": -28.736129852092677,
        "Longitude(deg)": -165.30883215381797,
        "Mean Anomaly(deg)": 208.7240431173816,
        "RAAN(deg)": 120.0037560338643,
        "Satellite Name": "Starlink Shell 3 1846",
        "Satellite Number": 1846,
        "Semi-Major Axis(m)": 6938478.169268562,
        "Time(s)": 360
    },
    {
        "Altitude(m)": 574459.4922325236,
        "Argument of Periapsis(deg)": -0.014672227174911913,
        "Eccentricity": 0.0,
        "Inclination(deg)": 97.0,
        "Latitude(deg)": -29.35656456432005,
        "Longitude(deg)": -165.44987333747972,
        "Mean Anomaly(deg)": 209.34951931508664,
        "RAAN(deg)": 120.00386036813833,
        "Satellite Name": "Starlink Shell 3 1846",
        "Satellite Number": 1846,
        "Semi-Major Axis(m)": 6938478.169268562,
        "Time(s)": 370
    }
]